{
    "links": {
        "self": "http://www.neowsapp.com/rest/v1/neo/54016761?api_key=iIulBulltgU6a56xZRHN4H3l9WmuAYTsLGpBGhQ2"
    },
    "id": "54016761",
    "neo_reference_id": "54016761",
    "name": "(2020 HO6)",
    "designation": "2020 HO6",
    "nasa_jpl_url": "http://ssd.jpl.nasa.gov/sbdb.cgi?sstr=54016761",
    "absolute_magnitude_h": 26.625,
    "estimated_diameter": {
        "kilometers": {
            "estimated_diameter_min": 0.0125763605,
            "estimated_diameter_max": 0.0281215969
        },
        "meters": {
            "estimated_diameter_min": 12.5763604632,
            "estimated_diameter_max": 28.1215969052
        },
        "miles": {
            "estimated_diameter_min": 0.0078145857,
            "estimated_diameter_max": 0.0174739448
        },
        "feet": {
            "estimated_diameter_min": 41.2610264621,
            "estimated_diameter_max": 92.2624599906
        }
    },
    "is_potentially_hazardous_asteroid": false,
    "close_approach_data": [
        {
            "close_approach_date": "2020-04-20",
            "close_approach_date_full": "2020-Apr-20 04:08",
            "epoch_date_close_approach": 1587355680000,
            "relative_velocity": {
                "kilometers_per_second": "9.8731636675",
                "kilometers_per_hour": "35543.3892029741",
                "miles_per_hour": "22085.2798078147"
            },
            "miss_distance": {
                "astronomical": "0.017087169",
                "lunar": "6.646908741",
                "kilometers": "2556204.08673003",
                "miles": "1588351.566653214"
            },
            "orbiting_body": "Earth"
        }
    ],
    "orbital_data": {
        "orbit_id": "1",
        "orbit_determination_date": "2020-04-26 08:12:10",
        "first_observation_date": "2020-04-24",
        "last_observation_date": "2020-04-26",
        "data_arc_in_days": 2,
        "observations_used": 26,
        "orbit_uncertainty": "8",
        "minimum_orbit_intersection": ".00901862",
        "jupiter_tisserand_invariant": "3.054",
        "epoch_osculation": "2458964.5",
        "eccentricity": ".6351469750603175",
        "semi_major_axis": "2.671234147482723",
        "inclination": "1.618500108086508",
        "ascending_node_longitude": "223.9630560538897",
        "orbital_period": "1594.653622007956",
        "perihelion_distance": ".9746078590312455",
        "perihelion_argument": "319.0288053523704",
        "aphelion_distance": "4.367860435934201",
        "perihelion_time": "2458938.690800000757",
        "mean_anomaly": "5.826539300759275",
        "mean_motion": ".2257543550722289",
        "equinox": "J2000",
        "orbit_class": {
            "orbit_class_type": "APO",
            "orbit_class_description": "Near-Earth asteroid orbits which cross the Earth’s orbit similar to that of 1862 Apollo",
            "orbit_class_range": "a (semi-major axis) > 1.0 AU; q (perihelion) < 1.017 AU"
        }
    },
    "is_sentry_object": false
}